{"type": "FeatureCollection", "features": [ {"type": "Feature", "properties": {"norad_id": 36238, "name": "FENGYUN 1C DEB", "group": "fengyun-1c-debris", "lat": 9.696937808967387, "lon": 131.0507233902164, "alt_km": 864.4209298537726, "timestamp": "2025-12-02T17:49:12.316063+00:00", "meta": {"OBJECT_NAME": "FENGYUN 1C DEB", "OBJECT_ID": "1999-025DVP", "EPOCH": "2025-11-30T08:54:33.009696", "MEAN_MOTION": 14.1238446, "ECCENTRICITY": 0.00204991, "INCLINATION": 98.6454, "RA_OF_ASC_NODE": 307.2735, "ARG_OF_PERICENTER": 318.6567, "MEAN_ANOMALY": 41.3053, "EPHEMERIS_TYPE": 0, "CLASSIFICATION_TYPE": "U", "NORAD_CAT_ID": 36238, "ELEMENT_SET_NO": 999, "REV_AT_EPOCH": 86843, "BSTAR": 0.0001008152, "MEAN_MOTION_DOT": 1.44e-06, "MEAN_MOTION_DDOT": 0}, "tle": {"line1": "1 36238U 99025DVP 25334.37121539  .00000144  00000+0  10082-3 0  9997", "line2": "2 36238  98.6454 307.2735 0020499 318.6567  41.3053 14.12384460868435"}}, "geometry": {"type": "Point", "coordinates": [131.0507233902164, 9.696937808967387]}}, {"type": "Feature", "properties": {"norad_id": 36244, "name": "FENGYUN 1C DEB", "group": "fengyun-1c-debris", "lat": -17.314797626156093, "lon": 90.00230499597788, "alt_km": 783.4206921170835, "timestamp": "2025-12-02T17:49:12.316073+00:00", "meta": {"OBJECT_NAME": "FENGYUN 1C DEB", "OBJECT_ID": "1999-025DVV", "EPOCH": "2025-12-01T06:30:33.359616", "MEAN_MOTION": 14.24827854, "ECCENTRICITY": 0.00483696, "INCLINATION": 98.9263, "RA_OF_ASC_NODE": 85.6985, "ARG_OF_PERICENTER": 317.9202, "MEAN_ANOMALY": 41.8266, "EPHEMERIS_TYPE": 0, "CLASSIFICATION_TYPE": "U", "NORAD_CAT_ID": 36244, "ELEMENT_SET_NO": 999, "REV_AT_EPOCH": 91815, "BSTAR": 0.0019641891, "MEAN_MOTION_DOT": 4.594e-05, "MEAN_MOTION_DDOT": 0}, "tle": {"line1": "1 36244U 99025DVV 25335.27121944  .00004594  00000+0  19642-2 0  9997", "line2": "2 36244  98.9263  85.6985 0048369 317.9202  41.8266 14.24827854918159"}}, "geometry": {"type": "Point", "coordinates": [90.00230499597788, -17.314797626156093]}}, {"type": "Feature", "properties": {"norad_id": 36247, "name": "FENGYUN 1C DEB", "group": "fengyun-1c-debris", "lat": -20.755444015844727, "lon": -6.584931604387155, "alt_km": 769.4163683431761, "timestamp": "2025-12-02T17:49:12.316082+00:00", "meta": {"OBJECT_NAME": "FENGYUN 1C DEB", "OBJECT_ID": "1999-025DVY", "EPOCH": "2025-12-01T11:45:50.986944", "MEAN_MOTION": 14.33529137, "ECCENTRICITY": 0.01878056, "INCLINATION": 98.2683, "RA_OF_ASC_NODE": 349.0587, "ARG_OF_PERICENTER": 67.2123, "MEAN_ANOMALY": 294.8783, "EPHEMERIS_TYPE": 0, "CLASSIFICATION_TYPE": "U", "NORAD_CAT_ID": 36247, "ELEMENT_SET_NO": 999, "REV_AT_EPOCH": 70101, "BSTAR": 0.00050385684, "MEAN_MOTION_DOT": 1.653e-05, "MEAN_MOTION_DDOT": 0}, "tle": {"line1": "1 36247U 99025DVY 25335.49017346  .00001653  00000+0  50386-3 0  9998", "line2": "2 36247  98.2683 349.0587 0187805  67.2123 294.8783 14.33529137701014"}}, "geometry": {"type": "Point", "coordinates": [-6.584931604387155, -20.755444015844727]}}, {"type": "Feature", "properties": {"norad_id": 36254, "name": "FENGYUN 1C DEB", "group": "fengyun-1c-debris", "lat": -76.69254932884691, "lon": -26.443805449888306, "alt_km": 556.211686417143, "timestamp": "2025-12-02T17:49:12.316092+00:00", "meta": {"OBJECT_NAME": "FENGYUN 1C DEB", "OBJECT_ID": "1999-025DWF", "EPOCH": "2025-11-28T03:13:13.440576", "MEAN_MOTION": 15.14661368, "ECCENTRICITY": 0.00473049, "INCLINATION": 99.5271, "RA_OF_ASC_NODE": 282.5527, "ARG_OF_PERICENTER": 88.2617, "MEAN_ANOMALY": 272.4026, "EPHEMERIS_TYPE": 0, "CLASSIFICATION_TYPE": "U", "NORAD_CAT_ID": 36254, "ELEMENT_SET_NO": 999, "REV_AT_EPOCH": 60555, "BSTAR": 0.0039684562, "MEAN_MOTION_DOT": 0.00076108, "MEAN_MOTION_DDOT": 0}, "tle": {"line1": "1 36254U 99025DWF 25332.13418334  .00076108  00000+0  39685-2 0  9991", "line2": "2 36254  99.5271 282.5527 0047304  88.2617 272.4026 15.14661368605551"}}, "geometry": {"type": "Point", "coordinates": [-26.443805449888306, -76.69254932884691]}}, {"type": "Feature", "properties": {"norad_id": 36255, "name": "FENGYUN 1C DEB", "group": "fengyun-1c-debris", "lat": 8.04570950473164, "lon": -104.8985506744572, "alt_km": 817.2011641970876, "timestamp": "2025-12-02T17:49:12.316102+00:00", "meta": {"OBJECT_NAME": "FENGYUN 1C DEB", "OBJECT_ID": "1999-025DWG", "EPOCH": "2025-12-02T01:08:53.393280", "MEAN_MOTION": 14.3649268, "ECCENTRICITY": 0.00635655, "INCLINATION": 99.4344, "RA_OF_ASC_NODE": 255.688, "ARG_OF_PERICENTER": 194.8753, "MEAN_ANOMALY": 182.9793, "EPHEMERIS_TYPE": 0, "CLASSIFICATION_TYPE": "U", "NORAD_CAT_ID": 36255, "ELEMENT_SET_NO": 999, "REV_AT_EPOCH": 63857, "BSTAR": 0.00086778184, "MEAN_MOTION_DOT": 2.555e-05, "MEAN_MOTION_DDOT": 0}, "tle": {"line1": "1 36255U 99025DWG 25336.04784020  .00002555  00000+0  86778-3 0  9995", "line2": "2 36255  99.4344 255.6880 0063565 194.8753 182.9793 14.36492680638573"}}, "geometry": {"type": "Point", "coordinates": [-104.8985506744572, 8.04570950473164]}}, {"type": "Feature", "properties": {"norad_id": 36258, "name": "FENGYUN 1C DEB", "group": "fengyun-1c-debris", "lat": -15.535407646784103, "lon": -177.54329631620453, "alt_km": 555.1108323710396, "timestamp": "2025-12-02T17:49:12.316112+00:00", "meta": {"OBJECT_NAME": "FENGYUN 1C DEB", "OBJECT_ID": "1999-025DWK", "EPOCH": "2025-12-01T19:46:34.453632", "MEAN_MOTION": 14.74759218, "ECCENTRICITY": 0.01733667, "INCLINATION": 99.0886, "RA_OF_ASC_NODE": 3.9768, "ARG_OF_PERICENTER": 159.529, "MEAN_ANOMALY": 201.2976, "EPHEMERIS_TYPE": 0, "CLASSIFICATION_TYPE": "U", "NORAD_CAT_ID": 36258, "ELEMENT_SET_NO": 999, "REV_AT_EPOCH": 90661, "BSTAR": 0.00031250425, "MEAN_MOTION_DOT": 2.591e-05, "MEAN_MOTION_DDOT": 0}, "tle": {"line1": "1 36258U 99025DWK 25335.82400988  .00002591  00000+0  31250-3 0  9996", "line2": "2 36258  99.0886   3.9768 0173366 159.5290 201.2976 14.74759218906613"}}, "geometry": {"type": "Point", "coordinates": [-177.54329631620453, -15.535407646784103]}}, {"type": "Feature", "properties": {"norad_id": 36260, "name": "FENGYUN 1C DEB", "group": "fengyun-1c-debris", "lat": -36.57341666725329, "lon": -14.297113990292234, "alt_km": 839.3660634427015, "timestamp": "2025-12-02T17:49:12.316122+00:00", "meta": {"OBJECT_NAME": "FENGYUN 1C DEB", "OBJECT_ID": "1999-025DWM", "EPOCH": "2025-11-30T06:36:44.655840", "MEAN_MOTION": 14.153588, "ECCENTRICITY": 0.00149722, "INCLINATION": 98.6614, "RA_OF_ASC_NODE": 336.8133, "ARG_OF_PERICENTER": 287.818, "MEAN_ANOMALY": 72.1361, "EPHEMERIS_TYPE": 0, "CLASSIFICATION_TYPE": "U", "NORAD_CAT_ID": 36260, "ELEMENT_SET_NO": 999, "REV_AT_EPOCH": 87632, "BSTAR": 0.00020291618, "MEAN_MOTION_DOT": 3.53e-06, "MEAN_MOTION_DDOT": 0}, "tle": {"line1": "1 36260U 99025DWM 25334.27551685  .00000353  00000+0  20292-3 0  9996", "line2": "2 36260  98.6614 336.8133 0014972 287.8180  72.1361 14.15358800876328"}}, "geometry": {"type": "Point", "coordinates": [-14.297113990292234, -36.57341666725329]}}, {"type": "Feature", "properties": {"norad_id": 36261, "name": "FENGYUN 1C DEB", "group": "fengyun-1c-debris", "lat": 68.22603455089633, "lon": -162.6112246066069, "alt_km": 844.0722646694039, "timestamp": "2025-12-02T17:49:12.316132+00:00", "meta": {"OBJECT_NAME": "FENGYUN 1C DEB", "OBJECT_ID": "1999-025DWN", "EPOCH": "2025-11-28T22:27:41.728896", "MEAN_MOTION": 13.45462654, "ECCENTRICITY": 0.03553098, "INCLINATION": 101.3647, "RA_OF_ASC_NODE": 223.3097, "ARG_OF_PERICENTER": 107.2508, "MEAN_ANOMALY": 256.7821, "EPHEMERIS_TYPE": 0, "CLASSIFICATION_TYPE": "U", "NORAD_CAT_ID": 36261, "ELEMENT_SET_NO": 999, "REV_AT_EPOCH": 84247, "BSTAR": 0.00058812885, "MEAN_MOTION_DOT": 4.57e-06, "MEAN_MOTION_DDOT": 0}, "tle": {"line1": "1 36261U 99025DWN 25332.93589964  .00000457  00000+0  58813-3 0  9994", "line2": "2 36261 101.3647 223.3097 0355309 107.2508 256.7821 13.45462654842472"}}, "geometry": {"type": "Point", "coordinates": [-162.6112246066069, 68.22603455089633]}}, {"type": "Feature", "properties": {"norad_id": 36262, "name": "FENGYUN 1C DEB", "group": "fengyun-1c-debris", "lat": 30.47966181398226, "lon": -148.3396898261838, "alt_km": 794.3335583338257, "timestamp": "2025-12-02T17:49:12.316142+00:00", "meta": {"OBJECT_NAME": "FENGYUN 1C DEB", "OBJECT_ID": "1999-025DWP", "EPOCH": "2025-11-29T22:24:04.978944", "MEAN_MOTION": 14.2777405, "ECCENTRICITY": 0.00602689, "INCLINATION": 98.9619, "RA_OF_ASC_NODE": 214.1092, "ARG_OF_PERICENTER": 312.9756, "MEAN_ANOMALY": 46.638, "EPHEMERIS_TYPE": 0, "CLASSIFICATION_TYPE": "U", "NORAD_CAT_ID": 36262, "ELEMENT_SET_NO": 999, "REV_AT_EPOCH": 89314, "BSTAR": 0.00033614212, "MEAN_MOTION_DOT": 7.99e-06, "MEAN_MOTION_DDOT": 0}, "tle": {"line1": "1 36262U 99025DWP 25333.93339096  .00000799  00000+0  33614-3 0  9996", "line2": "2 36262  98.9619 214.1092 0060268 312.9756  46.6380 14.27774050893146"}}, "geometry": {"type": "Point", "coordinates": [-148.3396898261838, 30.47966181398226]}}, {"type": "Feature", "properties": {"norad_id": 36263, "name": "FENGYUN 1C DEB", "group": "fengyun-1c-debris", "lat": -74.03543210937573, "lon": -109.16890751677784, "alt_km": 721.7175336409355, "timestamp": "2025-12-02T17:49:12.316152+00:00", "meta": {"OBJECT_NAME": "FENGYUN 1C DEB", "OBJECT_ID": "1999-025DWQ", "EPOCH": "2025-11-27T03:35:49.168032", "MEAN_MOTION": 14.45321264, "ECCENTRICITY": 0.00376819, "INCLINATION": 98.9999, "RA_OF_ASC_NODE": 211.2643, "ARG_OF_PERICENTER": 311.7324, "MEAN_ANOMALY": 48.0645, "EPHEMERIS_TYPE": 0, "CLASSIFICATION_TYPE": "U", "NORAD_CAT_ID": 36263, "ELEMENT_SET_NO": 999, "REV_AT_EPOCH": 87760, "BSTAR": 0.002195983, "MEAN_MOTION_DOT": 7.739e-05, "MEAN_MOTION_DDOT": 0}, "tle": {"line1": "1 36263U 99025DWQ 25331.14987463  .00007739  00000+0  21960-2 0  9996", "line2": "2 36263  98.9999 211.2643 0037681 311.7324  48.0645 14.45321264877607"}}, "geometry": {"type": "Point", "coordinates": [-109.16890751677784, -74.03543210937573]}}]}